[{"OBJECT_NAME":"STARLINK-3085","OBJECT_ID":"2021-082AC","EPOCH":"2026-03-09T22:37:55.126560","MEAN_MOTION":14.98328842,"ECCENTRICITY":0.00023031,"INCLINATION":69.999,"RA_OF_ASC_NODE":253.8076,"ARG_OF_PERICENTER":261.0432,"MEAN_ANOMALY":99.0466,"EPHEMERIS_TYPE":0,"CLASSIFICATION_TYPE":"U","NORAD_CAT_ID":49156,"ELEMENT_SET_NO":999,"REV_AT_EPOCH":24808,"BSTAR":1.6089864e-5,"MEAN_MOTION_DOT":9.9e-7,"MEAN_MOTION_DDOT":0},{"OBJECT_NAME":"SHIYAN-24C 03","OBJECT_ID":"2023-206C","EPOCH":"2026-03-09T21:23:43.281888","MEAN_MOTION":14.97896938,"ECCENTRICITY":0.0002411,"INCLINATION":97.3969,"RA_OF_ASC_NODE":41.7507,"ARG_OF_PERICENTER":66.6237,"MEAN_ANOMALY":293.524,"EPHEMERIS_TYPE":0,"CLASSIFICATION_TYPE":"U","NORAD_CAT_ID":58652,"ELEMENT_SET_NO":999,"REV_AT_EPOCH":12043,"BSTAR":0.00011928,"MEAN_MOTION_DOT":1.35e-5,"MEAN_MOTION_DDOT":0}]
